NORAD_CAT_ID,OBJECT_NAME,OBJECT_TYPE,EPOCH,MEAN_MOTION,ECCENTRICITY,INCLINATION,RA_OF_ASC_NODE,ARG_OF_PERICENTER,MEAN_ANOMALY,BSTAR,MEAN_MOTION_DOT,MEAN_MOTION_DDOT,TLE_LINE0,TLE_LINE1,TLE_LINE2,SEMIMAJOR_AXIS,PERIOD,APOGEE,PERIGEE,DECAYED
52587.0,STARLINK-3867,PAYLOAD,2024-01-16 10:09:16,15.08831478,0.000178,53.2163,35.1948,98.1431,261.9763,-1.6127e-05,-5.45e-06,0.0,0 STARLINK-3867,1 52587U 22051BD  24016.42310388 -.00000545  00000-0 -16127-4 0  9996,2 52587  53.2163  35.1948 0001780  98.1431 261.9763 15.08831478 93349,6917.906,95.438,541.003,538.54,0.0
52587.0,STARLINK-3867,PAYLOAD,2024-01-17 08:24:39,15.08844657,0.000175,53.2185,31.034,94.1981,265.9211,0.00014051,1.949e-05,0.0,0 STARLINK-3867,1 52587U 22051BD  24017.35046192  .00001949  00000-0  14051-3 0  9998,2 52587  53.2185  31.0340 0001750  94.1981 265.9211 15.08844657 93555,6917.866,95.437,540.942,538.521,0.0
52587.0,STARLINK-3867,PAYLOAD,2024-01-17 22:43:08,15.08838965,0.0001826,53.2176,28.3578,101.9769,258.1428,0.00022761,3.336e-05,0.0,0 STARLINK-3867,1 52587U 22051BD  24017.94662652  .00003336  00000-0  22761-3 0  9997,2 52587  53.2176  28.3578 0001826 101.9769 258.1428 15.08838965 93641,6917.884,95.438,541.012,538.485,0.0
52587.0,STARLINK-3867,PAYLOAD,2024-01-18 09:50:49,15.08852693,0.0001671,53.218,26.2756,99.3283,260.7898,0.0003935,5.982e-05,0.0,0 STARLINK-3867,1 52587U 22051BD  24018.41030088  .00005982  00000-0  39350-3 0  9993,2 52587  53.2180  26.2756 0001671  99.3283 260.7898 15.08852693 93712,6917.842,95.437,540.863,538.551,0.0
52587.0,STARLINK-3867,PAYLOAD,2024-01-18 22:33:55,15.08835626,0.0001783,53.2197,23.8902,118.7292,241.3879,0.00038485,5.841e-05,0.0,0 STARLINK-3867,1 52587U 22051BD  24018.94022729  .00005841  00000-0  38485-3 0  9996,2 52587  53.2197  23.8902 0001783 118.7292 241.3879 15.08835626 93795,6917.894,95.438,540.992,538.525,0.0
52587.0,STARLINK-3867,PAYLOAD,2024-01-19 09:41:37,15.08847304,0.0001768,53.2179,21.8097,111.4859,248.6322,0.00029927,4.479e-05,0.0,0 STARLINK-3867,1 52587U 22051BD  24019.40390237  .00004479  00000-0  29927-3 0  9997,2 52587  53.2179  21.8097 0001768 111.4859 248.6322 15.08847304 93799,6917.858,95.437,540.946,538.5,0.0
52587.0,STARLINK-3867,PAYLOAD,2024-01-20 03:10:51,15.08845056,0.0001724,53.2174,18.5446,114.2023,245.915,0.00022785,3.341e-05,0.0,0 STARLINK-3867,1 52587U 22051BD  24020.13254279  .00003341  00000-0  22785-3 0  9996,2 52587  53.2174  18.5446 0001724 114.2023 245.9150 15.08845056 93972,6917.865,95.437,540.923,538.537,0.0
52587.0,STARLINK-3867,PAYLOAD,2024-01-20 06:21:37,15.08851254,0.0001622,53.2173,17.95,103.0338,257.0835,0.00040678,6.194e-05,0.0,0 STARLINK-3867,1 52587U 22051BD  24020.26502206  .00006194  00000-0  40678-3 0  9996,2 52587  53.2173  17.9500 0001622 103.0338 257.0835 15.08851254 93923,6917.846,95.437,540.833,538.589,0.0
52587.0,STARLINK-3867,PAYLOAD,2024-01-21 03:01:39,15.08839291,0.0001569,53.2182,14.0877,76.1159,284.0008,0.00018622,2.677e-05,0.0,0 STARLINK-3867,1 52587U 22051BD  24021.12614742  .00002677  00000-0  18622-3 0  9997,2 52587  53.2182  14.0877 0001569  76.1159 284.0008 15.08839291 94121,6917.883,95.438,540.833,538.662,0.0
52587.0,STARLINK-3867,PAYLOAD,2024-01-21 06:12:25,15.08843516,0.0001601,53.2173,13.4905,94.5127,265.6048,0.00017983,2.575e-05,0.0,0 STARLINK-3867,1 52587U 22051BD  24021.25862546  .00002575  00000-0  17983-3 0  9994,2 52587  53.2173  13.4905 0001601  94.5127 265.6048 15.08843516 94070,6917.87,95.437,540.842,538.627,0.0
52587.0,STARLINK-3867,PAYLOAD,2024-01-22 04:27:49,15.08844869,0.0001598,53.217,9.3285,87.0597,273.0578,0.00013385,1.843e-05,0.0,0 STARLINK-3867,1 52587U 22051BD  24022.18598500  .00001843  00000-0  13385-3 0  9992,2 52587  53.2170   9.3285 0001598  87.0597 273.0578 15.08844869 94281,6917.866,95.437,540.836,538.625,0.0
52587.0,STARLINK-3867,PAYLOAD,2024-01-22 06:03:12,15.08848579,0.0001717,53.218,9.0308,95.7461,264.3727,0.00017728,2.535e-05,0.0,0 STARLINK-3867,1 52587U 22051BD  24022.25222289  .00002535  00000-0  17728-3 0  9992,2 52587  53.2180   9.0308 0001717  95.7461 264.3727 15.08848579 94229,6917.854,95.437,540.907,538.531,0.0
52587.0,STARLINK-3867,PAYLOAD,2024-01-23 02:43:13,15.08839662,0.0001781,53.2169,5.164,114.8619,245.2559,4.0583e-05,3.58e-06,0.0,0 STARLINK-3867,1 52587U 22051BD  24023.11334545  .00000358  00000-0  40583-4 0  9994,2 52587  53.2169   5.1640 0001781 114.8619 245.2559 15.08839662 94427,6917.881,95.438,540.978,538.514,0.0
52587.0,STARLINK-3867,PAYLOAD,2024-01-23 04:18:36,15.08841228,0.0001897,53.2191,4.8691,117.9131,242.2054,5.9482e-05,6.59e-06,0.0,0 STARLINK-3867,1 52587U 22051BD  24023.17958543  .00000659  00000-0  59482-4 0  9992,2 52587  53.2191   4.8691 0001897 117.9131 242.2054 15.08841228 94366,6917.877,95.437,541.054,538.429,0.0
52587.0,STARLINK-3867,PAYLOAD,2024-01-24 04:09:23,15.08844206,0.0002102,53.2196,0.4076,121.4599,238.6599,6.0494e-05,6.75e-06,0.0,0 STARLINK-3867,1 52587U 22051BD  24024.17318539  .00000675  00000-0  60494-4 0  9991,2 52587  53.2196   0.4076 0002102 121.4599 238.6599 15.08844206 94584,6917.868,95.437,541.187,538.278,0.0
52587.0,STARLINK-3867,PAYLOAD,2024-01-24 05:44:46,15.08846838,0.000152,53.2186,0.1086,96.6622,263.4543,0.0001423,1.978e-05,0.0,0 STARLINK-3867,1 52587U 22051BD  24024.23942603  .00001978  00000-0  14230-3 0  9996,2 52587  53.2186   0.1086 0001520  96.6622 263.4543 15.08846838 94526,6917.859,95.437,540.776,538.673,0.0
52587.0,STARLINK-3867,PAYLOAD,2024-01-25 04:00:11,15.08830197,0.0001906,53.2194,355.9473,61.7812,298.3372,0.00052259,8.037e-05,0.0,0 STARLINK-3867,1 52587U 22051BD  24025.16679878  .00008037  00000-0  52259-3 0  9996,2 52587  53.2194 355.9473 0001906  61.7812 298.3372 15.08830197 94739,6917.91,95.438,541.094,538.457,0.0
52587.0,STARLINK-3867,PAYLOAD,2024-01-25 05:35:34,15.088247,0.0001963,53.2201,355.6524,69.1243,290.9959,0.00078186,0.00012172,0.0,0 STARLINK-3867,1 52587U 22051BD  24025.23304271  .00012172  00000-0  78186-3 0  9998,2 52587  53.2201 355.6524 0001963  69.1243 290.9959 15.08824700 94670,6917.927,95.439,541.15,538.434,0.0
52587.0,STARLINK-3867,PAYLOAD,2024-01-26 03:50:58,15.08839153,0.0001969,53.2204,351.4874,68.8509,291.2693,-2.6094e-06,-3.3e-06,0.0,0 STARLINK-3867,1 52587U 22051BD  24026.16039645 -.00000330  00000-0 -26094-5 0  9999,2 52587  53.2204 351.4874 0001969  68.8509 291.2693 15.08839153 94815,6917.883,95.438,541.11,538.386,0.0
52587.0,STARLINK-3867,PAYLOAD,2024-01-27 06:52:31,15.08850397,0.0001784,53.2204,346.4257,82.601,277.5185,0.00021683,3.165e-05,0.0,0 STARLINK-3867,1 52587U 22051BD  24027.28647071  .00003165  00000-0  21683-3 0  9995,2 52587  53.2204 346.4257 0001784  82.6010 277.5185 15.08850397 95053,6917.849,95.437,540.948,538.479,0.0
52587.0,STARLINK-3867,PAYLOAD,2024-01-27 21:10:59,15.08836602,0.0001558,53.2197,343.7554,109.1533,250.9628,4.9007e-05,4.92e-06,0.0,0 STARLINK-3867,1 52587U 22051BD  24027.88263636  .00000492  00000-0  49007-4 0  9993,2 52587  53.2197 343.7554 0001558 109.1533 250.9628 15.08836602 95070,6917.891,95.438,540.834,538.678,0.0
52587.0,STARLINK-3867,PAYLOAD,2024-01-28 03:32:32,15.08840651,0.0001723,53.2192,342.5658,93.924,266.195,0.00010168,1.331e-05,0.0,0 STARLINK-3867,1 52587U 22051BD  24028.14759603  .00001331  00000-0  10168-3 0  9995,2 52587  53.2192 342.5658 0001723  93.9240 266.1950 15.08840651 95184,6917.878,95.438,540.935,538.551,0.0
52587.0,STARLINK-3867,PAYLOAD,2024-01-28 06:43:18,15.08842019,0.0001715,53.2188,341.9688,119.7398,240.3765,0.00012415,1.688e-05,0.0,0 STARLINK-3867,1 52587U 22051BD  24028.28007350  .00001688  00000-0  12415-3 0  9997,2 52587  53.2188 341.9688 0001715 119.7398 240.3765 15.08842019 95130,6917.874,95.437,540.926,538.553,0.0
52587.0,STARLINK-3867,PAYLOAD,2024-01-29 19:17:10,15.08836743,0.0001723,53.2188,335.1292,112.5318,247.5857,0.0002556,3.782e-05,0.0,0 STARLINK-3867,1 52587U 22051BD  24029.80359941  .00003782  00000-0  25560-3 0  9994,2 52587  53.2188 335.1292 0001723 112.5318 247.5857 15.08836743 95439,6917.89,95.438,540.947,538.563,0.0
52587.0,STARLINK-3867,PAYLOAD,2024-01-30 01:38:43,15.08845436,0.0001692,53.2187,333.9408,106.5941,253.5237,0.00016001,2.26e-05,0.0,0 STARLINK-3867,1 52587U 22051BD  24030.06855380  .00002260  00000-0  16001-3 0  9992,2 52587  53.2187 333.9408 0001692 106.5941 253.5237 15.08845436 95475,6917.864,95.437,540.899,538.558,0.0
52587.0,STARLINK-3867,PAYLOAD,2024-01-31 01:29:30,15.08840791,0.0001489,53.2186,329.4849,102.1477,257.9682,1.7172e-05,-1.5e-07,0.0,0 STARLINK-3867,1 52587U 22051BD  24031.06215575 -.00000015  00000-0  17172-4 0  9997,2 52587  53.2186 329.4849 0001489 102.1477 257.9682 15.08840791 95621,6917.878,95.438,540.773,538.713,0.0
52587.0,STARLINK-3867,PAYLOAD,2024-02-01 02:55:41,15.08836641,0.0001352,53.2181,324.7272,87.1889,272.9258,4.4987e-05,4.28e-06,0.0,0 STARLINK-3867,1 52587U 22051BD  24032.12200335  .00000428  00000-0  44987-4 0  9994,2 52587  53.2181 324.7272 0001352  87.1889 272.9258 15.08836641 95784,6917.891,95.438,540.691,538.82,0.0
52587.0,STARLINK-3867,PAYLOAD,2024-02-02 02:46:28,15.08813952,0.0001816,53.2187,320.2669,75.3311,284.7882,0.00064192,9.936e-05,0.0,0 STARLINK-3867,1 52587U 22051BD  24033.11560524  .00009936  00000-0  64192-3 0  9995,2 52587  53.2187 320.2669 0001816  75.3311 284.7882 15.08813952 95936,6917.96,95.439,541.081,538.569,0.0
52587.0,STARLINK-3867,PAYLOAD,2024-02-02 18:40:19,15.08841437,0.0001537,53.2186,317.2934,83.8073,276.3095,0.00010863,1.441e-05,0.0,0 STARLINK-3867,1 52587U 22051BD  24033.77800055  .00001441  00000-0  10863-3 0  9992,2 52587  53.2186 317.2934 0001537  83.8073 276.3095 15.08841437 96039,6917.876,95.437,540.804,538.678,0.0
52587.0,STARLINK-3867,PAYLOAD,2024-02-03 01:01:52,15.08823581,0.0001532,53.2182,316.1043,84.822,275.2947,0.00027429,4.078e-05,0.0,0 STARLINK-3867,1 52587U 22051BD  24034.04296635  .00004078  00000-0  27429-3 0  9991,2 52587  53.2182 316.1043 0001532  84.8220 275.2947 15.08823581 96072,6917.931,95.439,540.855,538.736,0.0
